{
  "norad_id": 54787,
  "name": "STARLINK-5441",
  "history": [
    {
      "epoch": "2026-03-28T21:41:08.791008Z",
      "apogee_km": 540.5374982729063,
      "perigee_km": 538.9174727676873,
      "latitude_deg": 8.03917059319181e-06,
      "longitude_deg": 165.98353770520538,
      "height_km": 540.4433599096889,
      "semi_major_axis_km": 6917.8644855202965,
      "eccentricity": 0.00011709,
      "inclination_deg": 53.2171,
      "raan_deg": 317.5875,
      "arg_perigee_deg": 77.1531,
      "mean_anomaly_deg": 282.9592,
      "mean_motion_rev_day": 15.08845203
    },
    {
      "epoch": "2026-03-29T00:51:54.990432Z",
      "apogee_km": 540.5303209747572,
      "perigee_km": 538.9170758598866,
      "latitude_deg": -2.935246991566475e-05,
      "longitude_deg": 117.56533486542526,
      "height_km": 540.4694012140087,
      "semi_major_axis_km": 6917.860698417322,
      "eccentricity": 0.0001166,
      "inclination_deg": 53.2169,
      "raan_deg": 316.9924,
      "arg_perigee_deg": 79.2645,
      "mean_anomaly_deg": 280.8478,
      "mean_motion_rev_day": 15.08846442
    },
    {
      "epoch": "2026-03-30T00:42:42.090048Z",
      "apogee_km": 540.6083816410755,
      "perigee_km": 538.8636940609294,
      "latitude_deg": 3.497011869600509e-05,
      "longitude_deg": 114.428797285673,
      "height_km": 540.605312240981,
      "semi_major_axis_km": 6917.873037851003,
      "eccentricity": 0.0001261,
      "inclination_deg": 53.218,
      "raan_deg": 312.5314,
      "arg_perigee_deg": 88.2507,
      "mean_anomaly_deg": 271.863,
      "mean_motion_rev_day": 15.08842405
    },
    {
      "epoch": "2026-03-30T00:42:42.090912Z",
      "apogee_km": 540.6081741048856,
      "perigee_km": 538.8639015971212,
      "latitude_deg": 3.77388918450208e-05,
      "longitude_deg": 114.428795734414,
      "height_km": 540.6053185763353,
      "semi_major_axis_km": 6917.873037851003,
      "eccentricity": 0.00012607,
      "inclination_deg": 53.218,
      "raan_deg": 312.5314,
      "arg_perigee_deg": 88.2507,
      "mean_anomaly_deg": 271.863,
      "mean_motion_rev_day": 15.08842405
    },
    {
      "epoch": "2026-03-30T21:22:43.375584Z",
      "apogee_km": 540.6251846435334,
      "perigee_km": 538.8851963997731,
      "latitude_deg": -1.5211705777845818e-05,
      "longitude_deg": 159.70844006428683,
      "height_km": 540.626731764852,
      "semi_major_axis_km": 6917.892190521653,
      "eccentricity": 0.00012576,
      "inclination_deg": 53.2183,
      "raan_deg": 308.6652,
      "arg_perigee_deg": 88.3926,
      "mean_anomaly_deg": 271.721,
      "mean_motion_rev_day": 15.08836139
    }
  ]
}